NORAD_CAT_ID,OBJECT_NAME,OBJECT_TYPE,EPOCH,MEAN_MOTION,ECCENTRICITY,INCLINATION,RA_OF_ASC_NODE,ARG_OF_PERICENTER,MEAN_ANOMALY,BSTAR,MEAN_MOTION_DOT,MEAN_MOTION_DDOT,TLE_LINE0,TLE_LINE1,TLE_LINE2,SEMIMAJOR_AXIS,PERIOD,APOGEE,PERIGEE,DECAYED
55395.0,STARLINK-5274,PAYLOAD,2024-05-25 14:42:52,14.98325744,0.0003029,70.0017,270.972,268.7933,91.2879,-9.2496e-06,-2.03e-06,0.0,0 STARLINK-5274,1 55395U 23014E   24146.61310732 -.00000203  00000-0 -92496-5 0  9999,2 55395  70.0017 270.9720 0003029 268.7933  91.2879 14.98325744 74232,6950.206,96.107,574.176,569.966,0.0
55395.0,STARLINK-5274,PAYLOAD,2024-05-25 17:55:08,14.98326897,0.0002937,69.9996,270.6337,266.5876,93.4947,5.6007e-05,5.75e-06,0.0,0 STARLINK-5274,1 55395U 23014E   24146.74662942  .00000575  00000-0  56007-4 0  9993,2 55395  69.9996 270.6337 0002937 266.5876  93.4947 14.98326897 73313,6950.202,96.107,574.109,570.026,0.0
55395.0,STARLINK-5274,PAYLOAD,2024-05-26 14:44:53,14.98331953,0.0002953,69.9996,268.4451,266.2532,93.829,0.00010282,1.134e-05,0.0,0 STARLINK-5274,1 55395U 23014E   24147.61450555  .00001134  00000-0  10282-3 0  9991,2 55395  69.9996 268.4451 0002953 266.2532  93.8290 14.98331953 74381,6950.187,96.107,574.104,569.999,0.0
55395.0,STARLINK-5274,PAYLOAD,2024-05-26 17:57:09,14.9833726,0.000299,69.9994,268.1085,267.6497,92.4319,0.00014377,1.623e-05,0.0,0 STARLINK-5274,1 55395U 23014E   24147.74802127  .00001623  00000-0  14377-3 0  9993,2 55395  69.9994 268.1085 0002990 267.6497  92.4319 14.98337260 73467,6950.17,96.107,574.114,569.957,0.0
55395.0,STARLINK-5274,PAYLOAD,2024-05-27 13:10:46,14.98327179,0.0003019,69.9997,266.0884,271.5055,88.5759,0.00016515,1.878e-05,0.0,0 STARLINK-5274,1 55395U 23014E   24148.54914800  .00001878  00000-0  16515-3 0  9992,2 55395  69.9997 266.0884 0003019 271.5055  88.5759 14.98327179 73586,6950.202,96.107,574.165,569.968,0.0
55395.0,STARLINK-5274,PAYLOAD,2024-05-27 14:46:54,14.9832803,0.0002892,70.0002,265.922,266.4005,93.6824,0.00021441,2.466e-05,0.0,0 STARLINK-5274,1 55395U 23014E   24148.61590619  .00002466  00000-0  21441-3 0  9996,2 55395  70.0002 265.9220 0002892 266.4005  93.6824 14.98328030 74537,6950.199,96.107,574.074,570.054,0.0
55395.0,STARLINK-5274,PAYLOAD,2024-05-27 17:59:10,14.98330154,0.0002809,70.0002,265.5849,261.989,98.095,0.00020423,2.345e-05,0.0,0 STARLINK-5274,1 55395U 23014E   24148.74942553  .00002345  00000-0  20423-3 0  9993,2 55395  70.0002 265.5849 0002809 261.9890  98.0950 14.98330154 74551,6950.192,96.107,574.01,570.105,0.0
55395.0,STARLINK-5274,PAYLOAD,2024-05-28 13:12:42,14.98385879,0.0002821,70.0009,263.5648,254.5006,105.5842,0.00068668,8.122e-05,0.0,0 STARLINK-5274,1 55395U 23014E   24149.55049327  .00008122  00000-0  68668-3 0  9992,2 55395  70.0009 263.5648 0002821 254.5006 105.5842 14.98385879 73731,6950.02,96.103,573.846,569.924,0.0
55395.0,STARLINK-5274,PAYLOAD,2024-05-28 18:01:10,14.98329024,0.0003,69.9998,263.0592,265.4257,94.6559,-1.8046e-06,-1.15e-06,0.0,0 STARLINK-5274,1 55395U 23014E   24149.75081922 -.00000115  00000-0 -18046-5 0  9994,2 55395  69.9998 263.0592 0003000 265.4257  94.6559 14.98329024 73763,6950.196,96.107,574.146,569.976,0.0
55395.0,STARLINK-5274,PAYLOAD,2024-05-29 14:50:55,14.98327289,0.0003068,70.0007,260.8711,267.6126,92.4682,-0.0001555,-1.948e-05,0.0,0 STARLINK-5274,1 55395U 23014E   24150.61869533 -.00001948  00000-0 -15550-3 0  9993,2 55395  70.0007 260.8711 0003068 267.6126  92.4682 14.98327289 74831,6950.201,96.107,574.199,569.934,0.0
55395.0,STARLINK-5274,PAYLOAD,2024-05-29 16:27:03,14.98328463,0.0003051,70.0008,260.7028,267.2749,92.8061,-0.00012528,-1.587e-05,0.0,0 STARLINK-5274,1 55395U 23014E   24150.68545484 -.00001587  00000-0 -12528-3 0  9997,2 55395  70.0008 260.7028 0003051 267.2749  92.8061 14.98328463 74842,6950.198,96.107,574.183,569.942,0.0
55395.0,STARLINK-5274,PAYLOAD,2024-05-30 11:40:39,14.98337872,0.0003076,70.001,258.6832,265.8107,94.27,-0.00011695,-1.488e-05,0.0,0 STARLINK-5274,1 55395U 23014E   24151.48656926 -.00001488  00000-0 -11695-3 0  9994,2 55395  70.0010 258.6832 0003076 265.8107  94.2700 14.98337872 74023,6950.169,96.106,574.171,569.896,0.0
55395.0,STARLINK-5274,PAYLOAD,2024-05-30 14:52:55,14.98338806,0.0003054,70.001,258.3466,265.2211,94.8599,8.934e-05,9.73e-06,0.0,0 STARLINK-5274,1 55395U 23014E   24151.62008986  .00000973  00000-0  89340-4 0  9996,2 55395  70.0010 258.3466 0003054 265.2211  94.8599 14.98338806 74984,6950.166,96.106,574.153,569.908,0.0
55395.0,STARLINK-5274,PAYLOAD,2024-05-30 16:29:03,14.9833964,0.0003058,70.001,258.1785,265.6831,94.3978,0.0001933,2.215e-05,0.0,0 STARLINK-5274,1 55395U 23014E   24151.68685015  .00002215  00000-0  19330-3 0  9998,2 55395  70.0010 258.1785 0003058 265.6831  94.3978 14.98339640 74996,6950.163,96.106,574.153,569.903,0.0
55395.0,STARLINK-5274,PAYLOAD,2024-05-31 13:18:49,14.98333591,0.0002859,70.0012,255.9902,264.8019,95.2814,0.00041837,4.903e-05,0.0,0 STARLINK-5274,1 55395U 23014E   24152.55473766  .00004903  00000-0  41837-3 0  9996,2 55395  70.0012 255.9902 0002859 264.8019  95.2814 14.98333591 74180,6950.182,96.107,574.034,570.06,0.0
55395.0,STARLINK-5274,PAYLOAD,2024-05-31 16:31:05,14.98335493,0.0002839,70.0012,255.6536,264.4345,95.6491,0.00043226,5.069e-05,0.0,0 STARLINK-5274,1 55395U 23014E   24152.68825697  .00005069  00000-0  43226-3 0  9992,2 55395  70.0012 255.6536 0002839 264.4345  95.6491 14.98335493 75141,6950.176,96.107,574.014,570.068,0.0
55395.0,STARLINK-5274,PAYLOAD,2024-06-01 13:20:50,14.98331425,0.0003175,70.0004,253.4634,266.9526,93.127,0.00015975,1.814e-05,0.0,0 STARLINK-5274,1 55395U 23014E   24153.55613810  .00001814  00000-0  15975-3 0  9995,2 55395  70.0004 253.4634 0003175 266.9526  93.1270 14.98331425 74338,6950.188,96.107,574.26,569.847,0.0
55395.0,STARLINK-5274,PAYLOAD,2024-06-02 13:22:53,14.98297749,0.0003037,70.0001,250.938,272.5442,87.5369,-0.00048303,-5.847e-05,0.0,0 STARLINK-5274,1 55395U 23014E   24154.55756046 -.00005847  00000-0 -48303-3 0  9998,2 55395  70.0001 250.9380 0003037 272.5442  87.5369 14.98297749 74484,6950.293,96.109,574.268,570.047,0.0
55395.0,STARLINK-5274,PAYLOAD,2024-06-03 11:48:45,14.98325047,0.0003092,70.001,248.5825,270.2855,89.795,0.00020427,2.345e-05,0.0,0 STARLINK-5274,1 55395U 23014E   24155.49219593  .00002345  00000-0  20427-3 0  9998,2 55395  70.0010 248.5825 0003092 270.2855  89.7950 14.98325047 74624,6950.208,96.107,574.222,569.924,0.0
55395.0,STARLINK-5274,PAYLOAD,2024-06-03 16:37:09,14.98331598,0.0002882,70.001,248.0773,270.88,89.2029,0.00030713,3.574e-05,0.0,0 STARLINK-5274,1 55395U 23014E   24155.69247405  .00003574  00000-0  30713-3 0  9997,2 55395  70.0010 248.0773 0002882 270.8800  89.2029 14.98331598 75590,6950.188,96.107,574.056,570.05,0.0
55395.0,STARLINK-5274,PAYLOAD,2024-06-04 05:26:13,14.98348647,0.000325,70.0001,246.7309,270.4075,89.6711,0.00069625,8.228e-05,0.0,0 STARLINK-5274,1 55395U 23014E   24156.22654751  .00008228  00000-0  69625-3 0  9998,2 55395  70.0001 246.7309 0003250 270.4075  89.6711 14.98348647 74730,6950.135,96.106,574.259,569.741,0.0
55395.0,STARLINK-5274,PAYLOAD,2024-06-04 11:50:45,14.98372656,0.0003166,70.0012,246.0579,270.8882,89.1914,0.0015491,0.0001846,0.0,0 STARLINK-5274,1 55395U 23014E   24156.49358128  .00018460  00000-0  15491-2 0  9996,2 55395  70.0012 246.0579 0003166 270.8882  89.1914 14.98372656 74771,6950.061,96.104,574.126,569.726,0.0
55395.0,STARLINK-5274,PAYLOAD,2024-06-05 05:28:13,14.98334337,0.0002887,70.0014,244.2061,265.9678,94.1151,-0.00093217,-0.00011199,0.0,0 STARLINK-5274,1 55395U 23014E   24157.22793437 -.00011199  00000-0 -93217-3 0  9991,2 55395  70.0014 244.2061 0002887 265.9678  94.1151 14.98334337 74881,6950.179,96.107,574.051,570.038,0.0
55395.0,STARLINK-5274,PAYLOAD,2024-06-05 11:52:45,14.98332529,0.0002968,70.0013,243.5328,265.727,94.355,-0.00019297,-2.395e-05,0.0,0 STARLINK-5274,1 55395U 23014E   24157.49497606 -.00002395  00000-0 -19297-3 0  9993,2 55395  70.0013 243.5328 0002968 265.7270  94.3550 14.98332529 75869,6950.185,96.107,574.113,569.987,0.0
55395.0,STARLINK-5274,PAYLOAD,2024-06-06 11:54:47,14.98342668,0.0002942,70.0012,241.0081,265.7066,94.3757,0.0012556,0.00014925,0.0,0 STARLINK-5274,1 55395U 23014E   24158.49638064  .00014925  00000-0  12556-2 0  9999,2 55395  70.0012 241.0081 0002942 265.7066  94.3757 14.98342668 75079,6950.154,96.106,574.063,569.974,0.0
55395.0,STARLINK-5274,PAYLOAD,2024-06-07 08:44:31,14.98321351,0.000304,70.001,238.8199,270.4633,89.6178,-0.00053204,-6.434e-05,0.0,0 STARLINK-5274,1 55395U 23014E   24159.36425896 -.00006434  00000-0 -53204-3 0  9997,2 55395  70.0010 238.8199 0003040 270.4633  89.6178 14.98321351 75209,6950.22,96.108,574.198,569.972,0.0
55395.0,STARLINK-5274,PAYLOAD,2024-06-08 05:34:16,14.98345257,0.0003023,70.0007,236.6318,271.6232,88.4581,0.0016961,0.00020211,0.0,0 STARLINK-5274,1 55395U 23014E   24160.23214087  .00020211  00000-0  16961-2 0  9998,2 55395  70.0007 236.6318 0003023 271.6232  88.4581 14.98345257 75333,6950.146,96.106,574.112,569.91,0.0
55395.0,STARLINK-5274,PAYLOAD,2024-06-08 11:58:48,14.98359504,0.0003023,70.0006,235.9582,273.057,87.0243,0.0018774,0.00022397,0.0,0 STARLINK-5274,1 55395U 23014E   24160.49917640  .00022397  00000-0  18774-2 0  9992,2 55395  70.0006 235.9582 0003023 273.0570  87.0243 14.98359504 76317,6950.102,96.105,574.068,569.866,0.0
55395.0,STARLINK-5274,PAYLOAD,2024-06-09 12:00:49,14.98337172,0.0003127,70.0003,233.434,273.4099,86.6702,0.00023616,2.726e-05,0.0,0 STARLINK-5274,1 55395U 23014E   24161.50057330  .00002726  00000-0  23616-3 0  9992,2 55395  70.0003 233.4340 0003127 273.4099  86.6702 14.98337172 75528,6950.171,96.107,574.209,569.862,0.0
55395.0,STARLINK-5274,PAYLOAD,2024-06-09 21:37:38,14.98335979,0.0002849,70.0005,232.4236,270.7574,89.3258,0.00094299,0.00011178,0.0,0 STARLINK-5274,1 55395U 23014E   24161.90113535  .00011178  00000-0  94299-3 0  9992,2 55395  70.0005 232.4236 0002849 270.7574  89.3258 14.98335979 76521,6950.174,96.107,574.02,570.059,0.0
